{"type": "FeatureCollection", "features": [{"type": "Feature", "properties": {"norad_id": 24946, "name": "IRIDIUM 33", "group": "iridium-33-debris", "lat": -46.73208457564239, "lon": -104.45159926600266, "alt_km": 777.4536061780964, "timestamp": "2025-12-04T10:51:50.490058+00:00", "meta": {"OBJECT_NAME": "IRIDIUM 33", "OBJECT_ID": "1997-051C", "EPOCH": "2025-12-03T23:46:08.899392", "MEAN_MOTION": 14.35027574, "ECCENTRICITY": 0.0006169, "INCLINATION": 86.3872, "RA_OF_ASC_NODE": 71.8938, "ARG_OF_PERICENTER": 234.0934, "MEAN_ANOMALY": 125.969, "EPHEMERIS_TYPE": 0, "CLASSIFICATION_TYPE": "U", "NORAD_CAT_ID": 24946, "ELEMENT_SET_NO": 999, "REV_AT_EPOCH": 47709, "BSTAR": 0.00024013, "MEAN_MOTION_DOT": 7.03e-06, "MEAN_MOTION_DDOT": 0}, "tle": {"line1": "1 24946U 97051C   25337.99038078  .00000703  00000+0  24013-3 0  9993", "line2": "2 24946  86.3872  71.8938 0006169 234.0934 125.9690 14.35027574477091"}}, "geometry": {"type": "Point", "coordinates": [-104.45159926600266, -46.73208457564239]}}, {"type": "Feature", "properties": {"norad_id": 33773, "name": "IRIDIUM 33 DEB", "group": "iridium-33-debris", "lat": -60.56083954971026, "lon": 57.69844336535461, "alt_km": 760.0955479703916, "timestamp": "2025-12-04T10:51:50.490103+00:00", "meta": {"OBJECT_NAME": "IRIDIUM 33 DEB", "OBJECT_ID": "1997-051L", "EPOCH": "2025-12-04T04:29:22.955136", "MEAN_MOTION": 14.43227722, "ECCENTRICITY": 0.0011567, "INCLINATION": 86.4014, "RA_OF_ASC_NODE": 64.2131, "ARG_OF_PERICENTER": 172.7623, "MEAN_ANOMALY": 187.3747, "EPHEMERIS_TYPE": 0, "CLASSIFICATION_TYPE": "U", "NORAD_CAT_ID": 33773, "ELEMENT_SET_NO": 999, "REV_AT_EPOCH": 88224, "BSTAR": 0.00064804, "MEAN_MOTION_DOT": 2.2e-05, "MEAN_MOTION_DDOT": 0}, "tle": {"line1": "1 33773U 97051L   25338.18707124  .00002200  00000+0  64804-3 0  9994", "line2": "2 33773  86.4014  64.2131 0011567 172.7623 187.3747 14.43227722882248"}}, "geometry": {"type": "Point", "coordinates": [57.69844336535461, -60.56083954971026]}}, {"type": "Feature", "properties": {"norad_id": 33775, "name": "IRIDIUM 33 DEB", "group": "iridium-33-debris", "lat": 75.34502924061951, "lon": 67.16265408061238, "alt_km": 749.1311333146468, "timestamp": "2025-12-04T10:51:50.490119+00:00", "meta": {"OBJECT_NAME": "IRIDIUM 33 DEB", "OBJECT_ID": "1997-051N", "EPOCH": "2025-12-04T04:08:13.949952", "MEAN_MOTION": 14.41439472, "ECCENTRICITY": 0.0013301, "INCLINATION": 86.3643, "RA_OF_ASC_NODE": 53.2105, "ARG_OF_PERICENTER": 181.7923, "MEAN_ANOMALY": 240.6552, "EPHEMERIS_TYPE": 0, "CLASSIFICATION_TYPE": "U", "NORAD_CAT_ID": 33775, "ELEMENT_SET_NO": 999, "REV_AT_EPOCH": 88017, "BSTAR": 0.0006498, "MEAN_MOTION_DOT": 2.128e-05, "MEAN_MOTION_DDOT": 0}, "tle": {"line1": "1 33775U 97051N   25338.17238368  .00002128  00000+0  64980-3 0  9998", "line2": "2 33775  86.3643  53.2105 0013301 181.7923 240.6552 14.41439472880179"}}, "geometry": {"type": "Point", "coordinates": [67.16265408061238, 75.34502924061951]}}, {"type": "Feature", "properties": {"norad_id": 33776, "name": "IRIDIUM 33 DEB", "group": "iridium-33-debris", "lat": 41.74722326730357, "lon": 87.4731151965168, "alt_km": 770.7001094266352, "timestamp": "2025-12-04T10:51:50.490132+00:00", "meta": {"OBJECT_NAME": "IRIDIUM 33 DEB", "OBJECT_ID": "1997-051P", "EPOCH": "2025-12-04T01:27:18.984960", "MEAN_MOTION": 14.38208616, "ECCENTRICITY": 0.0013413, "INCLINATION": 86.4038, "RA_OF_ASC_NODE": 84.4203, "ARG_OF_PERICENTER": 220.3755, "MEAN_ANOMALY": 313.0881, "EPHEMERIS_TYPE": 0, "CLASSIFICATION_TYPE": "U", "NORAD_CAT_ID": 33776, "ELEMENT_SET_NO": 999, "REV_AT_EPOCH": 87957, "BSTAR": 0.00057038, "MEAN_MOTION_DOT": 1.752e-05, "MEAN_MOTION_DDOT": 0}, "tle": {"line1": "1 33776U 97051P   25338.06063640  .00001752  00000+0  57038-3 0  9994", "line2": "2 33776  86.4038  84.4203 0013413 220.3755 313.0881 14.38208616879573"}}, "geometry": {"type": "Point", "coordinates": [87.4731151965168, 41.74722326730357]}}, {"type": "Feature", "properties": {"norad_id": 33777, "name": "IRIDIUM 33 DEB", "group": "iridium-33-debris", "lat": 32.86612511382016, "lon": 41.15238428114517, "alt_km": 706.7085360647015, "timestamp": "2025-12-04T10:51:50.490145+00:00", "meta": {"OBJECT_NAME": "IRIDIUM 33 DEB", "OBJECT_ID": "1997-051Q", "EPOCH": "2025-12-04T04:06:47.905056", "MEAN_MOTION": 14.5551004, "ECCENTRICITY": 0.0005147, "INCLINATION": 86.3799, "RA_OF_ASC_NODE": 38.9304, "ARG_OF_PERICENTER": 289.5346, "MEAN_ANOMALY": 70.5306, "EPHEMERIS_TYPE": 0, "CLASSIFICATION_TYPE": "U", "NORAD_CAT_ID": 33777, "ELEMENT_SET_NO": 999, "REV_AT_EPOCH": 88409, "BSTAR": 0.0021194, "MEAN_MOTION_DOT": 9.25e-05, "MEAN_MOTION_DDOT": 0}, "tle": {"line1": "1 33777U 97051Q   25338.17138779  .00009250  00000+0  21194-2 0  9997", "line2": "2 33777  86.3799  38.9304 0005147 289.5346  70.5306 14.55510040884097"}}, "geometry": {"type": "Point", "coordinates": [41.15238428114517, 32.86612511382016]}}, {"type": "Feature", "properties": {"norad_id": 33850, "name": "IRIDIUM 33 DEB", "group": "iridium-33-debris", "lat": 36.411329039417595, "lon": 36.446772109797344, "alt_km": 756.0453416358914, "timestamp": "2025-12-04T10:51:50.490158+00:00", "meta": {"OBJECT_NAME": "IRIDIUM 33 DEB", "OBJECT_ID": "1997-051T", "EPOCH": "2025-12-04T04:16:53.472288", "MEAN_MOTION": 14.42119045, "ECCENTRICITY": 0.0011303, "INCLINATION": 86.3423, "RA_OF_ASC_NODE": 33.8604, "ARG_OF_PERICENTER": 187.9437, "MEAN_ANOMALY": 225.7004, "EPHEMERIS_TYPE": 0, "CLASSIFICATION_TYPE": "U", "NORAD_CAT_ID": 33850, "ELEMENT_SET_NO": 999, "REV_AT_EPOCH": 88029, "BSTAR": 0.00075459, "MEAN_MOTION_DOT": 2.501e-05, "MEAN_MOTION_DDOT": 0}, "tle": {"line1": "1 33850U 97051T   25338.17839667  .00002501  00000+0  75459-3 0  9999", "line2": "2 33850  86.3423  33.8604 0011303 187.9437 225.7004 14.42119045880296"}}, "geometry": {"type": "Point", "coordinates": [36.446772109797344, 36.411329039417595]}}, {"type": "Feature", "properties": {"norad_id": 33853, "name": "IRIDIUM 33 DEB", "group": "iridium-33-debris", "lat": -82.80188964159662, "lon": -152.91340791302196, "alt_km": 754.4508334137981, "timestamp": "2025-12-04T10:51:50.490170+00:00", "meta": {"OBJECT_NAME": "IRIDIUM 33 DEB", "OBJECT_ID": "1997-051W", "EPOCH": "2025-12-04T01:16:34.217184", "MEAN_MOTION": 13.98972091, "ECCENTRICITY": 0.0206796, "INCLINATION": 86.0003, "RA_OF_ASC_NODE": 353.6212, "ARG_OF_PERICENTER": 262.6777, "MEAN_ANOMALY": 150.4676, "EPHEMERIS_TYPE": 0, "CLASSIFICATION_TYPE": "U", "NORAD_CAT_ID": 33853, "ELEMENT_SET_NO": 999, "REV_AT_EPOCH": 85224, "BSTAR": 0.0041696, "MEAN_MOTION_DOT": 7.249e-05, "MEAN_MOTION_DDOT": 0}, "tle": {"line1": "1 33853U 97051W   25338.05317381  .00007249  00000+0  41696-2 0  9992", "line2": "2 33853  86.0003 353.6212 0206796 262.6777 150.4676 13.98972091852249"}}, "geometry": {"type": "Point", "coordinates": [-152.91340791302196, -82.80188964159662]}}, {"type": "Feature", "properties": {"norad_id": 33860, "name": "IRIDIUM 33 DEB", "group": "iridium-33-debris", "lat": -58.72881128318201, "lon": 24.930983362689954, "alt_km": 676.6268491712945, "timestamp": "2025-12-04T10:51:50.490183+00:00", "meta": {"OBJECT_NAME": "IRIDIUM 33 DEB", "OBJECT_ID": "1997-051AD", "EPOCH": "2025-12-03T10:38:45.202272", "MEAN_MOTION": 14.67161247, "ECCENTRICITY": 0.0008596, "INCLINATION": 86.385, "RA_OF_ASC_NODE": 31.3522, "ARG_OF_PERICENTER": 28.3403, "MEAN_ANOMALY": 346.5569, "EPHEMERIS_TYPE": 0, "CLASSIFICATION_TYPE": "U", "NORAD_CAT_ID": 33860, "ELEMENT_SET_NO": 999, "REV_AT_EPOCH": 88586, "BSTAR": 0.0017679929, "MEAN_MOTION_DOT": 9.972e-05, "MEAN_MOTION_DDOT": 0}, "tle": {"line1": "1 33860U 97051AD  25337.44357873  .00009972  00000+0  17680-2 0  9993", "line2": "2 33860  86.3850  31.3522 0008596  28.3403 346.5569 14.67161247885868"}}, "geometry": {"type": "Point", "coordinates": [24.930983362689954, -58.72881128318201]}}, {"type": "Feature", "properties": {"norad_id": 33862, "name": "IRIDIUM 33 DEB", "group": "iridium-33-debris", "lat": -84.30813829192914, "lon": 2.1444699642195917, "alt_km": 708.8750407503167, "timestamp": "2025-12-04T10:51:50.490195+00:00", "meta": {"OBJECT_NAME": "IRIDIUM 33 DEB", "OBJECT_ID": "1997-051AF", "EPOCH": "2025-12-04T03:21:58.109760", "MEAN_MOTION": 14.69247155, "ECCENTRICITY": 0.0053987, "INCLINATION": 86.4102, "RA_OF_ASC_NODE": 41.3217, "ARG_OF_PERICENTER": 97.8676, "MEAN_ANOMALY": 325.1701, "EPHEMERIS_TYPE": 0, "CLASSIFICATION_TYPE": "U", "NORAD_CAT_ID": 33862, "ELEMENT_SET_NO": 999, "REV_AT_EPOCH": 88697, "BSTAR": 0.0034176, "MEAN_MOTION_DOT": 0.00020659, "MEAN_MOTION_DDOT": 0}, "tle": {"line1": "1 33862U 97051AF  25338.14025590  .00020659  00000+0  34176-2 0  9995", "line2": "2 33862  86.4102  41.3217 0053987  97.8676 325.1701 14.69247155886979"}}, "geometry": {"type": "Point", "coordinates": [2.1444699642195917, -84.30813829192914]}}, {"type": "Feature", "properties": {"norad_id": 33866, "name": "IRIDIUM 33 DEB", "group": "iridium-33-debris", "lat": -34.51779779382156, "lon": -80.90795104647347, "alt_km": 740.789522478165, "timestamp": "2025-12-04T10:51:50.490206+00:00", "meta": {"OBJECT_NAME": "IRIDIUM 33 DEB", "OBJECT_ID": "1997-051AK", "EPOCH": "2025-12-04T02:15:41.511744", "MEAN_MOTION": 14.25225856, "ECCENTRICITY": 0.0113757, "INCLINATION": 86.2998, "RA_OF_ASC_NODE": 96.6929, "ARG_OF_PERICENTER": 188.9524, "MEAN_ANOMALY": 347.038, "EPHEMERIS_TYPE": 0, "CLASSIFICATION_TYPE": "U", "NORAD_CAT_ID": 33866, "ELEMENT_SET_NO": 999, "REV_AT_EPOCH": 86687, "BSTAR": 0.0013814, "MEAN_MOTION_DOT": 3.492e-05, "MEAN_MOTION_DDOT": 0}, "tle": {"line1": "1 33866U 97051AK  25338.09423046  .00003492  00000+0  13814-2 0  9993", "line2": "2 33866  86.2998  96.6929 0113757 188.9524 347.0380 14.25225856866872"}}, "geometry": {"type": "Point", "coordinates": [-80.90795104647347, -34.51779779382156]}}]}